{
  "type": "FeatureCollection",
  "features": [
    {
      "type": "Feature",
      "properties": {
        "norad_id": 50032,
        "name": "COSMOS 1408 DEB",
        "group": "cosmos-1408-debris",
        "lat": 32.79761105692027,
        "lon": -119.81955920032895,
        "alt_km": 427.17908629798785,
        "timestamp": "2025-12-06T09:34:17.184253+00:00",
        "meta_object_name": "COSMOS 1408 DEB",
        "meta_object_id": "1982-092RU",
        "meta_epoch": "2025-12-05T17:23:56.046336",
        "meta_mean_motion": 15.45586231,
        "meta_eccentricity": 0.00147905,
        "meta_inclination": 82.5652,
        "meta_ra_of_asc_node": 65.698,
        "meta_arg_of_pericenter": 236.094,
        "meta_mean_anomaly": 123.8903,
        "meta_ephemeris_type": 0,
        "meta_classification_type": "U",
        "meta_norad_cat_id": 50032,
        "meta_element_set_no": 999,
        "meta_rev_at_epoch": 22495,
        "meta_bstar": 0.00018626345,
        "meta_mean_motion_dot": 9.032e-05,
        "meta_mean_motion_ddot": 0,
        "tle_line1": "1 50032U 82092RU  25339.72495424  .00009032  00000+0  18626-3 0  9999",
        "tle_line2": "2 50032  82.5652  65.6980 0014790 236.0940 123.8903 15.45586231224957"
      },
      "geometry": {
        "type": "Point",
        "coordinates": [
          -119.81955920032895,
          32.79761105692027
        ]
      }
    },
    {
      "type": "Feature",
      "properties": {
        "norad_id": 50058,
        "name": "COSMOS 1408 DEB",
        "group": "cosmos-1408-debris",
        "lat": -64.4403674214858,
        "lon": 60.23646516043453,
        "alt_km": 395.58843055245507,
        "timestamp": "2025-12-06T09:34:17.184275+00:00",
        "meta_object_name": "COSMOS 1408 DEB",
        "meta_object_id": "1982-092SW",
        "meta_epoch": "2025-12-05T18:29:29.821920",
        "meta_mean_motion": 15.6349035,
        "meta_eccentricity": 0.00162618,
        "meta_inclination": 82.6138,
        "meta_ra_of_asc_node": 76.6321,
        "meta_arg_of_pericenter": 123.2043,
        "meta_mean_anomaly": 237.0777,
        "meta_ephemeris_type": 0,
        "meta_classification_type": "U",
        "meta_norad_cat_id": 50058,
        "meta_element_set_no": 999,
        "meta_rev_at_epoch": 22695,
        "meta_bstar": 0.00049425942,
        "meta_mean_motion_dot": 0.00046166,
        "meta_mean_motion_ddot": 0,
        "tle_line1": "1 50058U 82092SW  25339.77048405  .00046166  00000+0  49426-3 0  9996",
        "tle_line2": "2 50058  82.6138  76.6321 0016261 123.2043 237.0777 15.63490350226957"
      },
      "geometry": {
        "type": "Point",
        "coordinates": [
          60.23646516043453,
          -64.4403674214858
        ]
      }
    },
    {
      "type": "Feature",
      "properties": {
        "norad_id": 50404,
        "name": "COSMOS 1408 DEB",
        "group": "cosmos-1408-debris",
        "lat": 60.77840259935039,
        "lon": 27.342258532614096,
        "alt_km": 547.0734925966426,
        "timestamp": "2025-12-06T09:34:17.184288+00:00",
        "meta_object_name": "COSMOS 1408 DEB",
        "meta_object_id": "1982-092ADS",
        "meta_epoch": "2025-12-05T17:09:27.041184",
        "meta_mean_motion": 15.12363152,
        "meta_eccentricity": 0.01748864,
        "meta_inclination": 82.2048,
        "meta_ra_of_asc_node": 222.217,
        "meta_arg_of_pericenter": 223.1904,
        "meta_mean_anomaly": 135.5503,
        "meta_ephemeris_type": 0,
        "meta_classification_type": "U",
        "meta_norad_cat_id": 50404,
        "meta_element_set_no": 999,
        "meta_rev_at_epoch": 21087,
        "meta_bstar": 0.0042947787,
        "meta_mean_motion_dot": 0.00109697,
        "meta_mean_motion_ddot": 0,
        "tle_line1": "1 50404U 82092ADS 25339.71489631  .00109697  00000+0  42948-2 0  9995",
        "tle_line2": "2 50404  82.2048 222.2170 0174886 223.1904 135.5503 15.12363152210879"
      },
      "geometry": {
        "type": "Point",
        "coordinates": [
          27.342258532614096,
          60.77840259935039
        ]
      }
    },
    {
      "type": "Feature",
      "properties": {
        "norad_id": 50621,
        "name": "COSMOS 1408 DEB",
        "group": "cosmos-1408-debris",
        "lat": 59.69052311371772,
        "lon": -112.11679181389525,
        "alt_km": 382.1721560822043,
        "timestamp": "2025-12-06T09:34:17.184299+00:00",
        "meta_object_name": "COSMOS 1408 DEB",
        "meta_object_id": "1982-092ALR",
        "meta_epoch": "2025-12-05T06:49:21.818784",
        "meta_mean_motion": 15.56082039,
        "meta_eccentricity": 0.00287898,
        "meta_inclination": 82.5718,
        "meta_ra_of_asc_node": 81.9388,
        "meta_arg_of_pericenter": 179.9157,
        "meta_mean_anomaly": 180.2108,
        "meta_ephemeris_type": 0,
        "meta_classification_type": "U",
        "meta_norad_cat_id": 50621,
        "meta_element_set_no": 999,
        "meta_rev_at_epoch": 22134,
        "meta_bstar": 0.00061371624,
        "meta_mean_motion_dot": 0.000438,
        "meta_mean_motion_ddot": 0,
        "tle_line1": "1 50621U 82092ALR 25339.28428031  .00043800  00000+0  61372-3 0  9991",
        "tle_line2": "2 50621  82.5718  81.9388 0028789 179.9157 180.2108 15.56082039221348"
      },
      "geometry": {
        "type": "Point",
        "coordinates": [
          -112.11679181389525,
          59.69052311371772
        ]
      }
    }
  ]
}